ARIANE 5 R/B            
1 28499U 04049H   26014.93751317  .00000781  00000+0  92721-4 0  9998
2 28499  98.2544 181.4155 0084689 164.5358 195.8473 14.85119288137812
CZ-2D R/B               
1 28738U 05024B   26015.00658833  .00020407  00000+0  30040-3 0  9998
2 28738  97.3621  28.3789 0004202 191.3163 168.7997 15.55458847131427
ALOS (DAICHI)           
1 28931U 06002A   26015.05908825  .00000800  00000+0  14299-3 0  9997
2 28931  98.1134 331.3221 0002147  90.6210 269.5241 14.69602916 65608
H-2A R/B                
1 28932U 06002B   26014.94276870  .00004668  00000+0  24307-3 0  9990
2 28932  98.2328 157.4260 0054434  64.7177 295.9679 15.15289628 86294
RESURS-DK 1             
1 29228U 06021A   26015.10116206  .00001308  00000+0  81410-4 0  9992
2 29228  69.9334  15.6059 0005736 229.5761 130.4905 15.12373269 79421
CZ-4B R/B               
1 29507U 06046C   26015.10034544  .00002217  00000+0  11640-3 0  9990
2 29507  97.5694  60.1492 0035328  93.2024 267.3251 15.16252524 51924
CZ-2C R/B               
1 31114U 07010B   26014.83121088  .00000055  00000+0  43938-4 0  9992
2 31114  98.3972 130.8170 0060131  90.9134 269.8934 14.20224512972076
COSMO-SKYMED 1          
1 31598U 07023A   26015.16644666  .00001758  00000+0  16181-3 0  9991
2 31598  97.8843 205.7923 0001226  74.8462 285.2894 14.96050391  6908
COSMOS 2428             
1 31792U 07029A   26015.01315219  .00000325  00000+0  20033-3 0  9996
2 31792  70.9398 316.0207 0005676 339.0159  21.0728 14.12910074956518
SL-16 R/B               
1 31793U 07029B   26015.20258677 -.00000270  00000+0 -11512-3 0  9995
2 31793  70.9761 284.8180 0002237 273.6037 239.5843 14.14824001957806
KORONAS-FOTON           
1 33504U 09003A   26014.85954176  .00005565  00000+0  12988-3 0  9996
2 33504  82.4319 331.7689 0011215   3.5990 356.5335 15.41902957937447
CZ-2C R/B               
1 37731U 11030B   26014.83562140  .00000734  00000+0  99354-4 0  9995
2 37731  97.8454 333.2201 0053069 164.0207 256.3337 14.81010341782129
H-2A R/B                
1 38341U 12025E   26015.18171973  .00001930  00000+0  18053-3 0  9992
2 38341  98.4642 338.0042 0046193 126.3405 234.2091 14.94681201740220
SHIJIAN-16 (SJ-16)      
1 39358U 13057A   26015.19530757  .00001041  00000+0  10498-3 0  9995
2 39358  74.9736 286.3468 0017821 242.4873 117.4505 14.92139922663529
SL-4 R/B                
1 39679U 14021B   26015.03326822  .00006244  00000+0  15151-3 0  9993
2 39679  51.6059 238.6915 0099372 267.0301  91.9307 15.37518718648019
ALOS-2                  
1 39766U 14029A   26015.22129546 -.00000023  00000+0  38416-5 0  9994
2 39766  97.9203 114.5877 0001443  97.6442 262.4934 14.79481376628961
YAOGAN-29               
1 41038U 15069A   26015.22040153  .00000178  00000+0  28627-4 0  9992
2 41038  98.0201  43.4963 0002276 126.3705 233.7718 14.82923331547955
ASTRO-H (HITOMI)        
1 41337U 16012A   26015.14986026  .00001767  00000+0  10149-3 0  9996
2 41337  31.0011 341.9459 0009704 156.0963 204.0127 15.09593858544137
HXMT (HUIYAN)           
1 42758U 17034A   26015.18489209  .00003418  00000+0  18086-3 0  9997
2 42758  43.0161 313.9734 0033537 256.8718 102.8387 15.16708738474416
CZ-2C R/B               
1 43521U 18054D   26015.13288852  .00136300  00000+0  59664-3 0  9999
2 43521  35.1340 313.0534 0010558 135.8053 224.3527 15.83184105420339
SAOCOM 1A               
1 43641U 18076A   26015.15712506  .00000338  00000+0  49058-4 0  9994
2 43641  97.8854 204.0933 0001526  84.2630 275.8757 14.82149318393433
H-2A R/B                
1 43682U 18084L   26015.13179707  .00011465  00000+0  29822-3 0  9995
2 43682  98.8766 221.1721 0025886 208.4146 151.5685 15.38802132397530
SAOCOM 1B               
1 46265U 20059A   26015.18832726 -.00000260  00000+0 -26119-4 0  9992
2 46265  97.8850 203.2231 0001300  85.2991 274.8371 14.82146999290829
CSS (TIANHE)            
1 48274U 21035A   26014.81534949  .00011697  00000+0  14132-3 0  9999
2 48274  41.4652 175.6947 0011406 285.7845  74.1736 15.60511354269195
COSMOS 2550             
1 48865U 21056A   26015.30795363 -.00000178  00000+0  40847-6 0  9990
2 48865  67.1407 202.3990 0008274 270.4917  89.5289 15.33841084255273
CZ-2C R/B               
1 52794U 22058K   26015.01935103  .00013874  00000+0  23752-3 0  9994
2 52794  50.1881 233.5832 0042994 334.9480  24.9403 15.50474094201797
CZ-2C R/B               
1 54039U 22132E   26014.98418031  .00019201  00000+0  26393-3 0  9996
2 54039  97.2946  16.8770 0017018 293.4624  66.4842 15.57166887182001
GSLV R/B                
1 54149U 22138AN  26014.96121085  .00001353  00000+0  11662-3 0  9994
2 54149  87.3830 184.3461 0021306 353.2398   6.8542 14.96333590175894
XRISM                   
1 57800U 23137A   26015.07189117  .00002761  00000+0  15668-3 0  9998
2 57800  31.0022 270.2749 0007945 223.5022 136.4990 15.10764447129678
ACS3                    
1 59588U 24077B   26014.80910763  .00014971  00000+0  12583-1 0  9993
2 59588  97.2415 328.0235 0059346 253.8169 105.6457 13.87161765 86725
SZ-21 MODULE            
1 66515U 25246C   26014.50013990  .00022256  00000+0  22760-3 0  9998
2 66515  41.4740 175.9087 0002003 169.7088 190.3794 15.64482120  9573
